NORAD_CAT_ID,OBJECT_NAME,OBJECT_TYPE,EPOCH,MEAN_MOTION,ECCENTRICITY,INCLINATION,RA_OF_ASC_NODE,ARG_OF_PERICENTER,MEAN_ANOMALY,BSTAR,MEAN_MOTION_DOT,MEAN_MOTION_DDOT,TLE_LINE0,TLE_LINE1,TLE_LINE2,SEMIMAJOR_AXIS,PERIOD,APOGEE,PERIGEE,DECAYED
51108.0,STARLINK-3362,PAYLOAD,2022-10-18 10:02:10,15.08833347,0.0002264,53.2164,87.9459,39.7492,320.3666,6.8265e-05,7.98e-06,0.0,0 STARLINK-3362,1 51108U 22005E   22291.41818231  .00000798  00000-0  68265-4 0  9993,2 51108  53.2164  87.9459 0002264  39.7492 320.3666 15.08833347 43047,6917.901,95.438,541.332,538.2,0.0
51108.0,STARLINK-3362,PAYLOAD,2022-10-18 11:37:34,15.08832046,0.0002248,53.2163,87.6484,39.6449,320.4708,4.222600000000001e-05,3.84e-06,0.0,0 STARLINK-3362,1 51108U 22005E   22291.48442415  .00000384  00000-0  42226-4 0  9997,2 51108  53.2163  87.6484 0002248  39.6449 320.4708 15.08832046 41955,6917.905,95.438,541.325,538.215,0.0
51108.0,STARLINK-3362,PAYLOAD,2022-10-18 17:59:08,15.08778127,0.0002663,53.2165,86.4591,49.7752,310.3473,0.00088529,0.00013806,0.0,0 STARLINK-3362,1 51108U 22005E   22291.74940157  .00013806  00000-0  88529-3 0  9990,2 51108  53.2165  86.4591 0002663  49.7752 310.3473 15.08778127 41993,6918.07,95.441,541.7769999999998,538.092,0.0
51108.0,STARLINK-3362,PAYLOAD,2022-10-19 09:52:57,15.08843753,0.0002435,53.2166,83.4852,41.5907,318.527,0.00011133,1.484e-05,0.0,0 STARLINK-3362,1 51108U 22005E   22292.41177788  .00001484  00000-0  11133-3 0  9993,2 51108  53.2166  83.4852 0002435  41.5907 318.5270 15.08843753 42095,6917.869000000002,95.437,541.418,538.049,0.0
51108.0,STARLINK-3362,PAYLOAD,2022-10-19 16:14:30,15.08844574,0.0002451,53.2167,82.2957,42.0903,318.0277,0.00011092,1.478e-05,0.0,0 STARLINK-3362,1 51108U 22005E   22292.67673703  .00001478  00000-0  11092-3 0  9996,2 51108  53.2167  82.2957 0002451  42.0903 318.0277 15.08844574 43230,6917.866,95.437,541.427,538.036,0.0
51108.0,STARLINK-3362,PAYLOAD,2022-10-20 09:43:44,15.08840313,0.0002394,53.2167,79.0247,42.3049,317.8128,0.00014176,1.969e-05,0.0,0 STARLINK-3362,1 51108U 22005E   22293.40537905  .00001969  00000-0  14176-3 0  9992,2 51108  53.2167  79.0247 0002394  42.3049 317.8128 15.08840313 42245,6917.879,95.438,541.401,538.0880000000002,0.0
51108.0,STARLINK-3362,PAYLOAD,2022-10-20 17:40:40,15.08845303,0.0002265,53.2165,77.5374,42.205,317.9116,0.00014415,2.007e-05,0.0,0 STARLINK-3362,1 51108U 22005E   22293.73657535  .00002007  00000-0  14415-3 0  9990,2 51108  53.2165  77.5374 0002265  42.2050 317.9116 15.08845303 43394,6917.864000000001,95.437,541.2959999999998,538.1619999999998,0.0
51108.0,STARLINK-3362,PAYLOAD,2022-10-21 09:34:31,15.08838217,0.0002358,53.2149,74.5634,45.7997,314.3188,5.5342e-05,5.92e-06,0.0,0 STARLINK-3362,1 51108U 22005E   22294.39898071  .00000592  00000-0  55342-4 0  9997,2 51108  53.2149  74.5634 0002358  45.7997 314.3188 15.08838217 42398,6917.886,95.438,541.382,538.12,0.0
51108.0,STARLINK-3362,PAYLOAD,2022-10-21 15:56:04,15.08844186,0.0002396999999999,53.2159,73.3749,42.6243,317.4934,0.0001063,1.404e-05,0.0,0 STARLINK-3362,1 51108U 22005E   22294.66393578  .00001404  00000-0  10630-3 0  9992,2 51108  53.2159  73.3749 0002397  42.6243 317.4934 15.08844186 42436,6917.868,95.437,541.391,538.0740000000002,0.0
51108.0,STARLINK-3362,PAYLOAD,2022-10-22 12:36:04,15.08851045,0.0002421999999999,53.2167,69.509,48.0336,312.0863,-1.3376e-05,-5.01e-06,0.0,0 STARLINK-3362,1 51108U 22005E   22295.52505299 -.00000501  00000-0 -13376-4 0  9993,2 51108  53.2167  69.5090 0002422  48.0336 312.0863 15.08851045 43663,6917.847,95.437,541.387,538.036,0.0
51108.0,STARLINK-3362,PAYLOAD,2022-10-22 18:57:36,15.08849177,0.0002318,53.2169,68.3194,39.571,320.5451,7.9722e-05,9.81e-06,0.0,0 STARLINK-3362,1 51108U 22005E   22295.79001132  .00000981  00000-0  79722-4 0  9996,2 51108  53.2169  68.3194 0002318  39.5710 320.5451 15.08849177 43707,6917.852,95.437,541.321,538.114,0.0
51108.0,STARLINK-3362,PAYLOAD,2022-10-23 09:16:05,15.08843653,0.0002316,53.2178,65.645,43.7504,316.3671,7.826e-05,9.58e-06,0.0,0 STARLINK-3362,1 51108U 22005E   22296.38617421  .00000958  00000-0  78260-4 0  9996,2 51108  53.2178  65.6450 0002316  43.7504 316.3671 15.08843653 43797,6917.869000000002,95.437,541.336,538.132,0.0
51108.0,STARLINK-3362,PAYLOAD,2022-10-23 15:37:37,15.08851992,0.0002305,53.2174,64.4553,41.0293,319.0872,0.00012342,1.677e-05,0.0,0 STARLINK-3362,1 51108U 22005E   22296.65112629  .00001677  00000-0  12342-3 0  9993,2 51108  53.2174  64.4553 0002305  41.0293 319.0872 15.08851992 43831,6917.844,95.437,541.303,538.114,0.0
51108.0,STARLINK-3362,PAYLOAD,2022-10-24 01:09:56,15.08842555,0.0002366,53.2168,62.6694,36.386,323.7293,2.7468e-05,1.49e-06,0.0,0 STARLINK-3362,1 51108U 22005E   22297.04857345  .00000149  00000-0  27468-4 0  9997,2 51108  53.2168  62.6694 0002366  36.3860 323.7293 15.08842555 43894,6917.873000000001,95.437,541.374,538.101,0.0
51108.0,STARLINK-3362,PAYLOAD,2022-10-24 09:06:52,15.08837239,0.0002346999999999,53.2168,61.1825,37.3457,322.7698,1.9447e-05,2.1e-07,0.0,0 STARLINK-3362,1 51108U 22005E   22297.37977648  .00000021  00000-0  19447-4 0  9999,2 51108  53.2168  61.1825 0002347  37.3457 322.7698 15.08837239 43943,6917.889,95.438,541.377,538.13,0.0
51108.0,STARLINK-3362,PAYLOAD,2022-10-24 17:03:49,15.08824534,0.0002366,53.2166,59.6943,27.834,332.2778,-0.0001026,-1.92e-05,0.0,0 STARLINK-3362,1 51108U 22005E   22297.71098922 -.00001920  00000-0 -10260-3 0  9990,2 51108  53.2166  59.6943 0002366  27.8340 332.2778 15.08824534 43994,6917.928000000001,95.439,541.429,538.156,0.0
51108.0,STARLINK-3362,PAYLOAD,2022-10-25 07:22:17,15.08825901,0.000226,53.2169,57.0201,31.5958,328.517,-2.3767e-05,-6.66e-06,0.0,0 STARLINK-3362,1 51108U 22005E   22298.30715166 -.00000666  00000-0 -23767-4 0  9995,2 51108  53.2169  57.0201 0002260  31.5958 328.5170 15.08825901 42987,6917.9230000000025,95.438,541.352,538.225,0.0
51108.0,STARLINK-3362,PAYLOAD,2022-10-25 18:29:59,15.08836102,0.0002254999999999,53.2173,54.9374,31.9754,328.1374,-1.2878e-05,-4.93e-06,0.0,0 STARLINK-3362,1 51108U 22005E   22298.77082749 -.00000493  00000-0 -12878-4 0  9999,2 51108  53.2173  54.9374 0002255  31.9754 328.1374 15.08836102 43057,6917.892,95.438,541.317,538.197,0.0
51108.0,STARLINK-3362,PAYLOAD,2022-10-26 07:13:03,15.08856902,0.0002301,53.2171,52.5593,26.1014,334.0094,-0.00012481,-2.275e-05,0.0,0 STARLINK-3362,1 51108U 22005E   22299.30073786 -.00002275  00000-0 -12481-3 0  9999,2 51108  53.2171  52.5593 0002301  26.1014 334.0094 15.08856902 44235,6917.829000000002,95.436,541.286,538.102,0.0
51108.0,STARLINK-3362,PAYLOAD,2022-10-26 11:59:16,15.08776275,0.0001602,53.2172,51.6673,36.9768,323.1334,0.0012720999999999,0.0001998,0.0,0 STARLINK-3362,1 51108U 22005E   22299.49949083  .00019980  00000-0  12721-2 0  9996,2 51108  53.2172  51.6673 0001602  36.9768 323.1334 15.08776275 43164,6918.075,95.442,541.048,538.832,0.0
51108.0,STARLINK-3362,PAYLOAD,2022-10-26 15:10:00,15.08842429,0.0002353,53.2168,51.0723,29.6213,330.4912,0.00043268,6.605e-05,0.0,0 STARLINK-3362,1 51108U 22005E   22299.63194652  .00006605  00000-0  43268-3 0  9997,2 51108  53.2168  51.0723 0002353  29.6213 330.4912 15.08842429 43187,6917.873000000001,95.437,541.366,538.11,0.0
51108.0,STARLINK-3362,PAYLOAD,2022-10-27 00:42:19,15.088377800000002,0.0002504999999999,53.2168,49.2885,29.9198,330.1937,0.00025062,3.702e-05,0.0,0 STARLINK-3362,1 51108U 22005E   22300.02939023  .00003702  00000-0  25062-3 0  9999,2 51108  53.2168  49.2885 0002505  29.9198 330.1937 15.08837780 44346,6917.887,95.438,541.485,538.019,0.0
51108.0,STARLINK-3362,PAYLOAD,2022-10-27 13:25:24,15.08845746,0.0002399999999999,53.2173,46.909,29.2391,330.8736,0.00019126,2.757e-05,0.0,0 STARLINK-3362,1 51108U 22005E   22300.55930643  .00002757  00000-0  19126-3 0  9999,2 51108  53.2173  46.9090 0002400  29.2391 330.8736 15.08845746 44420,6917.863,95.437,541.388,538.068,0.0
51108.0,STARLINK-3362,PAYLOAD,2022-10-27 15:00:48,15.08825041,0.0002381999999999,53.2169,46.6121,31.532,328.5814,-3.8026e-05,-8.93e-06,0.0,0 STARLINK-3362,1 51108U 22005E   22300.62556203 -.00000893  00000-0 -38026-4 0  9995,2 51108  53.2169  46.6121 0002382  31.5320 328.5814 15.08825041 43330,6917.926,95.439,541.439,538.143,0.0
51108.0,STARLINK-3362,PAYLOAD,2022-10-28 13:16:11,15.08858967,0.0002443,53.2167,42.45,31.9992,328.1148,0.00084554,0.00013201,0.0,0 STARLINK-3362,1 51108U 22005E   22301.55291202  .00013201  00000-0  84554-3 0  9994,2 51108  53.2167  42.4500 0002443  31.9992 328.1148 15.08858967 44576,6917.821999999999,95.436,541.377,537.997,0.0
51108.0,STARLINK-3362,PAYLOAD,2022-10-29 06:45:24,15.08875058,0.000248,53.2166,39.1784,33.5546,326.5603,0.00079581,0.00012412,0.0,0 STARLINK-3362,1 51108U 22005E   22302.28153789  .00012412  00000-0  79581-3 0  9999,2 51108  53.2166  39.1784 0002480  33.5546 326.5603 15.08875058 44686,6917.773,95.435,541.354,537.923,0.0
51108.0,STARLINK-3362,PAYLOAD,2022-10-29 09:56:11,15.08852165,0.0003018999999999,53.2177,38.5876,17.901,342.2088,0.0012178,0.00019154,0.0,0 STARLINK-3362,1 51108U 22005E   22302.41402088  .00019154  00000-0  12178-2 0  9991,2 51108  53.2177  38.5876 0003019  17.9010 342.2088 15.08852165 43601,6917.843000000003,95.437,541.797,537.62,0.0
51108.0,STARLINK-3362,PAYLOAD,2022-10-29 14:42:20,15.08860759,0.0002669,53.2169,37.6924,32.3183,327.7972,0.00066391,0.000103,0.0,0 STARLINK-3362,1 51108U 22005E   22302.61273825  .00010300  00000-0  66391-3 0  9999,2 51108  53.2169  37.6924 0002669  32.3183 327.7972 15.08860759 44731,6917.816999999999,95.436,541.528,537.836,0.0
51108.0,STARLINK-3362,PAYLOAD,2022-10-30 11:22:21,15.08845775,0.0002223,53.217,33.826,24.3216,335.7881,0.0012014,0.00018887,0.0,0 STARLINK-3362,1 51108U 22005E   22303.47386259  .00018887  00000-0  12014-2 0  9990,2 51108  53.2170  33.8260 0002223  24.3216 335.7881 15.08845775 43769,6917.863,95.437,541.266,538.19,0.0
